[{"OBJECT_NAME":"STARLINK-2015","OBJECT_ID":"2021-012U","EPOCH":"2026-03-09T22:09:23.404320","MEAN_MOTION":15.30181873,"ECCENTRICITY":0.00011937,"INCLINATION":53.1603,"RA_OF_ASC_NODE":331.3215,"ARG_OF_PERICENTER":95.8181,"MEAN_ANOMALY":264.2956,"EPHEMERIS_TYPE":0,"CLASSIFICATION_TYPE":"U","NORAD_CAT_ID":47638,"ELEMENT_SET_NO":999,"REV_AT_EPOCH":28139,"BSTAR":-4.4390938e-5,"MEAN_MOTION_DOT":-1.673e-5,"MEAN_MOTION_DDOT":0},{"OBJECT_NAME":"OBJECT F","OBJECT_ID":"2023-072F","EPOCH":"2026-03-09T23:31:37.259904","MEAN_MOTION":15.29470958,"ECCENTRICITY":0.00062878,"INCLINATION":97.5173,"RA_OF_ASC_NODE":265.798,"ARG_OF_PERICENTER":19.0017,"MEAN_ANOMALY":341.1456,"EPHEMERIS_TYPE":0,"CLASSIFICATION_TYPE":"U","NORAD_CAT_ID":56748,"ELEMENT_SET_NO":999,"REV_AT_EPOCH":15460,"BSTAR":0.00043416252,"MEAN_MOTION_DOT":0.00012341,"MEAN_MOTION_DDOT":0}]
